[{"OBJECT_NAME":"JILIN-1 GAOFEN 03D08","OBJECT_ID":"2022-155A","EPOCH":"2026-03-09T23:19:58.131840","MEAN_MOTION":15.549418,"ECCENTRICITY":0.00037458,"INCLINATION":97.6053,"RA_OF_ASC_NODE":207.2887,"ARG_OF_PERICENTER":356.2753,"MEAN_ANOMALY":3.8472,"EPHEMERIS_TYPE":0,"CLASSIFICATION_TYPE":"U","NORAD_CAT_ID":54251,"ELEMENT_SET_NO":999,"REV_AT_EPOCH":18435,"BSTAR":0.00076641112,"MEAN_MOTION_DOT":0.00051434,"MEAN_MOTION_DDOT":0},{"OBJECT_NAME":"STARLINK-30189","OBJECT_ID":"2023-105A","EPOCH":"2026-03-09T22:00:01.999584","MEAN_MOTION":15.51162056,"ECCENTRICITY":0.00017619,"INCLINATION":42.9995,"RA_OF_ASC_NODE":236.5048,"ARG_OF_PERICENTER":284.6262,"MEAN_ANOMALY":116.714,"EPHEMERIS_TYPE":0,"CLASSIFICATION_TYPE":"U","NORAD_CAT_ID":57430,"ELEMENT_SET_NO":999,"REV_AT_EPOCH":573,"BSTAR":0.0058866843,"MEAN_MOTION_DOT":0.003694,"MEAN_MOTION_DDOT":0}]
